QZS-1R                  
1 49336U 21096A   24214.54630882 -.00000335  00000+0  00000+0 0  9992
2 49336  36.0344  89.8380 0758862 272.3475 275.6029  1.00242499 10147
